IRIDIUM 124             
1 42810U 17039H   26087.69820263  .00000347  00000+0  97047-4 0  9998
2 42810  86.4502 324.0349 0002119  87.8557 272.2886 14.43288466463509
IRIDIUM 128             
1 42811U 17039J   26087.83581850  .00000192  00000+0  61588-4 0  9990
2 42811  86.3942  58.7317 0002333  91.2456 268.9007 14.34218614458462
IRIDIUM 121             
1 42812U 17039K   26087.86410089  .00000273  00000+0  90581-4 0  9994
2 42812  86.4004  27.2264 0002286  85.0173 275.1284 14.34216749458317
IRIDIUM 133             
1 42955U 17061A   26087.86753133  .00000099  00000+0  28415-4 0  9990
2 42955  86.3942  58.8343 0002237  89.0956 271.0496 14.34218057443264
IRIDIUM 100             
1 42956U 17061B   26087.86118860  .00000200  00000+0  64498-4 0  9998
2 42956  86.3942  58.7573 0002209  89.2852 270.8597 14.34218167443266
IRIDIUM 122             
1 42957U 17061C   26087.82947553 -.00000016  00000+0 -12758-4 0  9993
2 42957  86.3942  58.7710 0002059  88.8745 271.2687 14.34217889443264
IRIDIUM 129             
1 42958U 17061D   26087.85484601  .00000042  00000+0  79214-5 0  9995
2 42958  86.3942  58.8261 0002156  78.9648 281.1790 14.34217494443286
IRIDIUM 119             
1 42959U 17061E   26087.89290137  .00000042  00000+0  79484-5 0  9998
2 42959  86.3945  58.8059 0002065  85.7338 274.4093 14.34217382443306
IRIDIUM 107             
1 42960U 17061F   26087.84216045  .00000016  00000+0 -13416-5 0  9996
2 42960  86.3944  58.8481 0001953  94.9266 265.2152 14.34217626443308
IRIDIUM 132             
1 42961U 17061G   26087.84850358  .00000009  00000+0 -39795-5 0  9998
2 42961  86.3942  58.8254 0002117  90.1906 269.9532 14.34217533443307
IRIDIUM 136             
1 42962U 17061H   26087.46160505  .00000139  00000+0  42573-4 0  9995
2 42962  86.3944  58.9933 0002068  87.4049 272.7384 14.34218285443264
IRIDIUM 139             
1 42963U 17061J   26087.88655875  .00000193  00000+0  61685-4 0  9996
2 42963  86.3945  58.8762 0002237  89.8892 270.2560 14.34218431443335
IRIDIUM 125             
1 42964U 17061K   26087.66456644  .00000251  00000+0  82545-4 0  9999
2 42964  86.3945  59.0287 0001650  90.7493 269.3892 14.34218662443318
IRIDIUM 135             
1 43070U 17083A   26087.77823127  .00000239  00000+0  78349-4 0  9991
2 43070  86.4025 355.6260 0002197  85.6787 274.4659 14.34218761432629
IRIDIUM 138             
1 43071U 17083B   26087.80360154  .00000276  00000+0  91657-4 0  9990
2 43071  86.4037 355.2987 0001877  77.8248 282.3158 14.34218762432616
IRIDIUM 116             
1 43072U 17083C   26087.84165286  .00000256  00000+0  84529-4 0  9992
2 43072  86.4024 355.5865 0002384  89.5190 270.6279 14.34215483432656
IRIDIUM 130             
1 43073U 17083D   26087.80994428 -.00000053  00000+0 -26115-4 0  9991
2 43073  86.4028 355.8668 0002067  92.6460 267.4972 14.34217510432598
