[{"OBJECT_NAME":"IRIDIUM 124","OBJECT_ID":"2017-039H","EPOCH":"2026-03-28T16:45:24.707232","MEAN_MOTION":14.43288466,"ECCENTRICITY":0.0002119,"INCLINATION":86.4502,"RA_OF_ASC_NODE":324.0349,"ARG_OF_PERICENTER":87.8557,"MEAN_ANOMALY":272.2886,"EPHEMERIS_TYPE":0,"CLASSIFICATION_TYPE":"U","NORAD_CAT_ID":42810,"ELEMENT_SET_NO":999,"REV_AT_EPOCH":46350,"BSTAR":9.7047e-5,"MEAN_MOTION_DOT":3.47e-6,"MEAN_MOTION_DDOT":0},{"OBJECT_NAME":"IRIDIUM 128","OBJECT_ID":"2017-039J","EPOCH":"2026-03-28T20:03:34.718400","MEAN_MOTION":14.34218614,"ECCENTRICITY":0.0002333,"INCLINATION":86.3942,"RA_OF_ASC_NODE":58.7317,"ARG_OF_PERICENTER":91.2456,"MEAN_ANOMALY":268.9007,"EPHEMERIS_TYPE":0,"CLASSIFICATION_TYPE":"U","NORAD_CAT_ID":42811,"ELEMENT_SET_NO":999,"REV_AT_EPOCH":45846,"BSTAR":6.1588e-5,"MEAN_MOTION_DOT":1.92e-6,"MEAN_MOTION_DDOT":0},{"OBJECT_NAME":"IRIDIUM 121","OBJECT_ID":"2017-039K","EPOCH":"2026-03-28T20:44:18.316896","MEAN_MOTION":14.34216749,"ECCENTRICITY":0.0002286,"INCLINATION":86.4004,"RA_OF_ASC_NODE":27.2264,"ARG_OF_PERICENTER":85.0173,"MEAN_ANOMALY":275.1284,"EPHEMERIS_TYPE":0,"CLASSIFICATION_TYPE":"U","NORAD_CAT_ID":42812,"ELEMENT_SET_NO":999,"REV_AT_EPOCH":45831,"BSTAR":9.0581e-5,"MEAN_MOTION_DOT":2.73e-6,"MEAN_MOTION_DDOT":0},{"OBJECT_NAME":"IRIDIUM 133","OBJECT_ID":"2017-061A","EPOCH":"2026-03-28T20:49:14.706912","MEAN_MOTION":14.34218057,"ECCENTRICITY":0.0002237,"INCLINATION":86.3942,"RA_OF_ASC_NODE":58.8343,"ARG_OF_PERICENTER":89.0956,"MEAN_ANOMALY":271.0496,"EPHEMERIS_TYPE":0,"CLASSIFICATION_TYPE":"U","NORAD_CAT_ID":42955,"ELEMENT_SET_NO":999,"REV_AT_EPOCH":44326,"BSTAR":2.8415e-5,"MEAN_MOTION_DOT":9.9e-7,"MEAN_MOTION_DDOT":0},{"OBJECT_NAME":"IRIDIUM 100","OBJECT_ID":"2017-061B","EPOCH":"2026-03-28T20:40:06.695040","MEAN_MOTION":14.34218167,"ECCENTRICITY":0.0002209,"INCLINATION":86.3942,"RA_OF_ASC_NODE":58.7573,"ARG_OF_PERICENTER":89.2852,"MEAN_ANOMALY":270.8597,"EPHEMERIS_TYPE":0,"CLASSIFICATION_TYPE":"U","NORAD_CAT_ID":42956,"ELEMENT_SET_NO":999,"REV_AT_EPOCH":44326,"BSTAR":6.4498e-5,"MEAN_MOTION_DOT":2.0e-6,"MEAN_MOTION_DDOT":0},{"OBJECT_NAME":"IRIDIUM 122","OBJECT_ID":"2017-061C","EPOCH":"2026-03-28T19:54:26.685792","MEAN_MOTION":14.34217889,"ECCENTRICITY":0.0002059,"INCLINATION":86.3942,"RA_OF_ASC_NODE":58.771,"ARG_OF_PERICENTER":88.8745,"MEAN_ANOMALY":271.2687,"EPHEMERIS_TYPE":0,"CLASSIFICATION_TYPE":"U","NORAD_CAT_ID":42957,"ELEMENT_SET_NO":999,"REV_AT_EPOCH":44326,"BSTAR":-1.2758e-5,"MEAN_MOTION_DOT":-1.6e-7,"MEAN_MOTION_DDOT":0},{"OBJECT_NAME":"IRIDIUM 129","OBJECT_ID":"2017-061D","EPOCH":"2026-03-28T20:30:58.695264","MEAN_MOTION":14.34217494,"ECCENTRICITY":0.0002156,"INCLINATION":86.3942,"RA_OF_ASC_NODE":58.8261,"ARG_OF_PERICENTER":78.9648,"MEAN_ANOMALY":281.179,"EPHEMERIS_TYPE":0,"CLASSIFICATION_TYPE":"U","NORAD_CAT_ID":42958,"ELEMENT_SET_NO":999,"REV_AT_EPOCH":44328,"BSTAR":7.9214e-6,"MEAN_MOTION_DOT":4.2e-7,"MEAN_MOTION_DDOT":0},{"OBJECT_NAME":"IRIDIUM 119","OBJECT_ID":"2017-061E","EPOCH":"2026-03-28T21:25:46.678368","MEAN_MOTION":14.34217382,"ECCENTRICITY":0.0002065,"INCLINATION":86.3945,"RA_OF_ASC_NODE":58.8059,"ARG_OF_PERICENTER":85.7338,"MEAN_ANOMALY":274.4093,"EPHEMERIS_TYPE":0,"CLASSIFICATION_TYPE":"U","NORAD_CAT_ID":42959,"ELEMENT_SET_NO":999,"REV_AT_EPOCH":44330,"BSTAR":7.9484e-6,"MEAN_MOTION_DOT":4.2e-7,"MEAN_MOTION_DDOT":0},{"OBJECT_NAME":"IRIDIUM 107","OBJECT_ID":"2017-061F","EPOCH":"2026-03-28T20:12:42.662880","MEAN_MOTION":14.34217626,"ECCENTRICITY":0.0001953,"INCLINATION":86.3944,"RA_OF_ASC_NODE":58.8481,"ARG_OF_PERICENTER":94.9266,"MEAN_ANOMALY":265.2152,"EPHEMERIS_TYPE":0,"CLASSIFICATION_TYPE":"U","NORAD_CAT_ID":42960,"ELEMENT_SET_NO":999,"REV_AT_EPOCH":44330,"BSTAR":-1.3416e-6,"MEAN_MOTION_DOT":1.6e-7,"MEAN_MOTION_DDOT":0},{"OBJECT_NAME":"IRIDIUM 132","OBJECT_ID":"2017-061G","EPOCH":"2026-03-28T20:21:50.709312","MEAN_MOTION":14.34217533,"ECCENTRICITY":0.0002117,"INCLINATION":86.3942,"RA_OF_ASC_NODE":58.8254,"ARG_OF_PERICENTER":90.1906,"MEAN_ANOMALY":269.9532,"EPHEMERIS_TYPE":0,"CLASSIFICATION_TYPE":"U","NORAD_CAT_ID":42961,"ELEMENT_SET_NO":999,"REV_AT_EPOCH":44330,"BSTAR":-3.9795e-6,"MEAN_MOTION_DOT":9.0e-8,"MEAN_MOTION_DDOT":0},{"OBJECT_NAME":"IRIDIUM 136","OBJECT_ID":"2017-061H","EPOCH":"2026-03-28T11:04:42.676320","MEAN_MOTION":14.34218285,"ECCENTRICITY":0.00020685,"INCLINATION":86.3944,"RA_OF_ASC_NODE":58.9933,"ARG_OF_PERICENTER":87.4049,"MEAN_ANOMALY":272.7384,"EPHEMERIS_TYPE":0,"CLASSIFICATION_TYPE":"U","NORAD_CAT_ID":42962,"ELEMENT_SET_NO":999,"REV_AT_EPOCH":44326,"BSTAR":4.2572873e-5,"MEAN_MOTION_DOT":1.39e-6,"MEAN_MOTION_DDOT":0},{"OBJECT_NAME":"IRIDIUM 139","OBJECT_ID":"2017-061J","EPOCH":"2026-03-28T21:16:38.676000","MEAN_MOTION":14.34218431,"ECCENTRICITY":0.0002237,"INCLINATION":86.3945,"RA_OF_ASC_NODE":58.8762,"ARG_OF_PERICENTER":89.8892,"MEAN_ANOMALY":270.256,"EPHEMERIS_TYPE":0,"CLASSIFICATION_TYPE":"U","NORAD_CAT_ID":42963,"ELEMENT_SET_NO":999,"REV_AT_EPOCH":44333,"BSTAR":6.1685e-5,"MEAN_MOTION_DOT":1.93e-6,"MEAN_MOTION_DDOT":0},{"OBJECT_NAME":"IRIDIUM 125","OBJECT_ID":"2017-061K","EPOCH":"2026-03-28T15:56:58.540416","MEAN_MOTION":14.34218662,"ECCENTRICITY":0.000165,"INCLINATION":86.3945,"RA_OF_ASC_NODE":59.0287,"ARG_OF_PERICENTER":90.7493,"MEAN_ANOMALY":269.3892,"EPHEMERIS_TYPE":0,"CLASSIFICATION_TYPE":"U","NORAD_CAT_ID":42964,"ELEMENT_SET_NO":999,"REV_AT_EPOCH":44331,"BSTAR":8.2545e-5,"MEAN_MOTION_DOT":2.51e-6,"MEAN_MOTION_DDOT":0},{"OBJECT_NAME":"IRIDIUM 135","OBJECT_ID":"2017-083A","EPOCH":"2026-03-28T18:40:39.181728","MEAN_MOTION":14.34218761,"ECCENTRICITY":0.0002197,"INCLINATION":86.4025,"RA_OF_ASC_NODE":355.626,"ARG_OF_PERICENTER":85.6787,"MEAN_ANOMALY":274.4659,"EPHEMERIS_TYPE":0,"CLASSIFICATION_TYPE":"U","NORAD_CAT_ID":43070,"ELEMENT_SET_NO":999,"REV_AT_EPOCH":43262,"BSTAR":7.8349e-5,"MEAN_MOTION_DOT":2.39e-6,"MEAN_MOTION_DDOT":0},{"OBJECT_NAME":"IRIDIUM 138","OBJECT_ID":"2017-083B","EPOCH":"2026-03-28T19:17:11.173056","MEAN_MOTION":14.34218762,"ECCENTRICITY":0.0001877,"INCLINATION":86.4037,"RA_OF_ASC_NODE":355.2987,"ARG_OF_PERICENTER":77.8248,"MEAN_ANOMALY":282.3158,"EPHEMERIS_TYPE":0,"CLASSIFICATION_TYPE":"U","NORAD_CAT_ID":43071,"ELEMENT_SET_NO":999,"REV_AT_EPOCH":43261,"BSTAR":9.1657e-5,"MEAN_MOTION_DOT":2.76e-6,"MEAN_MOTION_DDOT":0},{"OBJECT_NAME":"IRIDIUM 116","OBJECT_ID":"2017-083C","EPOCH":"2026-03-28T20:11:58.807104","MEAN_MOTION":14.34215483,"ECCENTRICITY":0.0002384,"INCLINATION":86.4024,"RA_OF_ASC_NODE":355.5865,"ARG_OF_PERICENTER":89.519,"MEAN_ANOMALY":270.6279,"EPHEMERIS_TYPE":0,"CLASSIFICATION_TYPE":"U","NORAD_CAT_ID":43072,"ELEMENT_SET_NO":999,"REV_AT_EPOCH":43265,"BSTAR":8.4529e-5,"MEAN_MOTION_DOT":2.56e-6,"MEAN_MOTION_DDOT":0},{"OBJECT_NAME":"IRIDIUM 130","OBJECT_ID":"2017-083D","EPOCH":"2026-03-28T19:26:19.185792","MEAN_MOTION":14.3421751,"ECCENTRICITY":0.0002067,"INCLINATION":86.4028,"RA_OF_ASC_NODE":355.8668,"ARG_OF_PERICENTER":92.646,"MEAN_ANOMALY":267.4972,"EPHEMERIS_TYPE":0,"CLASSIFICATION_TYPE":"U","NORAD_CAT_ID":43073,"ELEMENT_SET_NO":999,"REV_AT_EPOCH":43259,"BSTAR":-2.6115e-5,"MEAN_MOTION_DOT":-5.3e-7,"MEAN_MOTION_DDOT":0}]
